start=new Date('2023-03-16T00:00:00.000Z').valueOf();
sats=[{"PERIOD":"95.437","RA_OF_ASC_NODE":"1.7500","DECAY_DATE":null,"GP_ID":"228207180","INCLINATION":"53.2181","FILE":"3861599","NORAD_CAT_ID":"49755","SEMIMAJOR_AXIS":"6917.862","ARG_OF_PERICENTER":"95.6183","MEAN_MOTION_DOT":"0.00014495","ELEMENT_SET_NO":"999","CLASSIFICATION_TYPE":"U","REV_AT_EPOCH":"7100","TIME_SYSTEM":"UTC","ECCENTRICITY":"0.00005810","OBJECT_TYPE":"PAYLOAD","MEAN_ELEMENT_THEORY":"SGP4","RCS_SIZE":"LARGE","CENTER_NAME":"EARTH","EPHEMERIS_TYPE":"0","SITE":"AFETR","PERIAPSIS":"539.325","TLE_LINE1":"1 49755U 21115AH  23074.81618289  .00014495  00000-0  92675-3 0  9994","EPOCH":"2023-03-15T19:35:18.201696","OBJECT_ID":"2021-115AH","MEAN_MOTION":"15.08846095","REF_FRAME":"TEME","COUNTRY_CODE":"US","MEAN_MOTION_DDOT":"0.0000000000000","BSTAR":"0.00092675000000","MEAN_ANOMALY":"264.4875","TLE_LINE2":"2 49755  53.2181   1.7500 0000581  95.6183 264.4875 15.08846095 71001","LAUNCH_DATE":"2021-12-02","OBJECT_NAME":"STARLINK-3210","APOAPSIS":"540.129"},{"EPOCH":"2023-03-15T21:43:48.886752","MEAN_MOTION":"15.08854315","OBJECT_ID":"2021-115AJ","COUNTRY_CODE":"US","REF_FRAME":"TEME","MEAN_MOTION_DDOT":"0.0000000000000","BSTAR":"0.00143230000000","MEAN_ANOMALY":"243.9143","TLE_LINE2":"2 49756  53.2165 351.3527 0001435 116.1997 243.9143 15.08854315 71158","LAUNCH_DATE":"2021-12-02","OBJECT_NAME":"STARLINK-3207","APOAPSIS":"540.694","MEAN_ELEMENT_THEORY":"SGP4","OBJECT_TYPE":"PAYLOAD","CENTER_NAME":"EARTH","RCS_SIZE":"LARGE","EPHEMERIS_TYPE":"0","PERIAPSIS":"538.709","SITE":"AFETR","TLE_LINE1":"1 49756U 21115AJ  23074.90542693  .00022589  00000-0  14323-2 0  9996","ARG_OF_PERICENTER":"116.1997","SEMIMAJOR_AXIS":"6917.837","MEAN_MOTION_DOT":"0.00022589","ELEMENT_SET_NO":"999","CLASSIFICATION_TYPE":"U","REV_AT_EPOCH":"7115","TIME_SYSTEM":"UTC","ECCENTRICITY":"0.00014350","PERIOD":"95.437","RA_OF_ASC_NODE":"351.3527","DECAY_DATE":null,"GP_ID":"228206931","INCLINATION":"53.2165","NORAD_CAT_ID":"49756","FILE":"3861599"},{"APOAPSIS":"540.830","OBJECT_NAME":"STARLINK-3197","LAUNCH_DATE":"2021-12-02","TLE_LINE2":"2 49757  53.2168 354.6598 0001736 110.8398 249.2780 15.08877923 71040","MEAN_ANOMALY":"249.2780","BSTAR":"0.00214620000000","MEAN_MOTION_DDOT":"0.0000000000000","REF_FRAME":"TEME","COUNTRY_CODE":"US","OBJECT_ID":"2021-115AK","MEAN_MOTION":"15.08877923","EPOCH":"2023-03-15T04:05:21.537888","TLE_LINE1":"1 49757U 21115AK  23074.17038817  .00034070  00000-0  21462-2 0  9994","PERIAPSIS":"538.429","SITE":"AFETR","EPHEMERIS_TYPE":"0","CENTER_NAME":"EARTH","RCS_SIZE":"LARGE","MEAN_ELEMENT_THEORY":"SGP4","OBJECT_TYPE":"PAYLOAD","ECCENTRICITY":"0.00017360","TIME_SYSTEM":"UTC","REV_AT_EPOCH":"7104","CLASSIFICATION_TYPE":"U","ELEMENT_SET_NO":"999","MEAN_MOTION_DOT":"0.00034070","SEMIMAJOR_AXIS":"6917.764","ARG_OF_PERICENTER":"110.8398","FILE":"3861350","NORAD_CAT_ID":"49757","INCLINATION":"53.2168","GP_ID":"228150287","DECAY_DATE":null,"RA_OF_ASC_NODE":"354.6598","PERIOD":"95.435"},{"BSTAR":"0.00074567000000","MEAN_ANOMALY":"243.9815","MEAN_MOTION_DDOT":"0.0000000000000","OBJECT_NAME":"STARLINK-3194","LAUNCH_DATE":"2021-12-02","APOAPSIS":"540.416","TLE_LINE2":"2 49758  53.2166 351.3229 0001050 116.1285 243.9815 15.08858104 71159","EPOCH":"2023-03-15T21:54:24.458112","COUNTRY_CODE":"US","REF_FRAME":"TEME","MEAN_MOTION":"15.08858104","OBJECT_ID":"2021-115AL","TLE_LINE1":"1 49758U 21115AL  23074.91278308  .00011605  00000-0  74567-3 0  9992","CENTER_NAME":"EARTH","RCS_SIZE":"LARGE","OBJECT_TYPE":"PAYLOAD","MEAN_ELEMENT_THEORY":"SGP4","EPHEMERIS_TYPE":"0","PERIAPSIS":"538.964","SITE":"AFETR","REV_AT_EPOCH":"7115","CLASSIFICATION_TYPE":"U","TIME_SYSTEM":"UTC","ECCENTRICITY":"0.00010500","ARG_OF_PERICENTER":"116.1285","SEMIMAJOR_AXIS":"6917.825","ELEMENT_SET_NO":"999","MEAN_MOTION_DOT":"0.00011605","GP_ID":"228206429","INCLINATION":"53.2166","FILE":"3861599","NORAD_CAT_ID":"49758","RA_OF_ASC_NODE":"351.3229","PERIOD":"95.436","DECAY_DATE":null},{"TLE_LINE1":"1 49759U 21115AM  23074.04062668  .00027766  00000-0  17546-2 0  9995","EPHEMERIS_TYPE":"0","SITE":"AFETR","PERIAPSIS":"538.608","CENTER_NAME":"EARTH","RCS_SIZE":"LARGE","OBJECT_TYPE":"PAYLOAD","MEAN_ELEMENT_THEORY":"SGP4","OBJECT_NAME":"STARLINK-3204","LAUNCH_DATE":"2021-12-02","APOAPSIS":"540.733","TLE_LINE2":"2 49759  53.2160 355.2299 0001536 111.6978 248.4177 15.08864580 71024","BSTAR":"0.00175460000000","MEAN_ANOMALY":"248.4177","MEAN_MOTION_DDOT":"0.0000000000000","REF_FRAME":"TEME","COUNTRY_CODE":"US","OBJECT_ID":"2021-115AM","MEAN_MOTION":"15.08864580","EPOCH":"2023-03-15T00:58:30.145152","INCLINATION":"53.2160","NORAD_CAT_ID":"49759","FILE":"3861350","GP_ID":"228149287","DECAY_DATE":null,"RA_OF_ASC_NODE":"355.2299","PERIOD":"95.436","TIME_SYSTEM":"UTC","ECCENTRICITY":"0.00015360","REV_AT_EPOCH":"7102","CLASSIFICATION_TYPE":"U","ELEMENT_SET_NO":"999","MEAN_MOTION_DOT":"0.00027766","SEMIMAJOR_AXIS":"6917.805","ARG_OF_PERICENTER":"111.6978"},{"TLE_LINE1":"1 49760U 21115AN  23074.92014344  .00020170  00000-0  12816-2 0  9999","MEAN_ELEMENT_THEORY":"SGP4","OBJECT_TYPE":"PAYLOAD","CENTER_NAME":"EARTH","RCS_SIZE":"LARGE","EPHEMERIS_TYPE":"0","SITE":"AFETR","PERIAPSIS":"538.828","MEAN_MOTION_DDOT":"0.0000000000000","BSTAR":"0.00128160000000","MEAN_ANOMALY":"248.0376","TLE_LINE2":"2 49760  53.2172 351.2903 0001304 112.0754 248.0376 15.08845017 71163","OBJECT_NAME":"STARLINK-3199","LAUNCH_DATE":"2021-12-02","APOAPSIS":"540.632","EPOCH":"2023-03-15T22:05:00.393216","OBJECT_ID":"2021-115AN","MEAN_MOTION":"15.08845017","REF_FRAME":"TEME","COUNTRY_CODE":"US","GP_ID":"228207431","INCLINATION":"53.2172","FILE":"3861599","NORAD_CAT_ID":"49760","PERIOD":"95.437","RA_OF_ASC_NODE":"351.2903","DECAY_DATE":null,"CLASSIFICATION_TYPE":"U","REV_AT_EPOCH":"7116","TIME_SYSTEM":"UTC","ECCENTRICITY":"0.00013040","SEMIMAJOR_AXIS":"6917.865","ARG_OF_PERICENTER":"112.0754","MEAN_MOTION_DOT":"0.00020170","ELEMENT_SET_NO":"999"},{"EPHEMERIS_TYPE":"0","SITE":"AFETR","PERIAPSIS":"538.963","CENTER_NAME":"EARTH","RCS_SIZE":"LARGE","OBJECT_TYPE":"PAYLOAD","MEAN_ELEMENT_THEORY":"SGP4","TLE_LINE1":"1 49761U 21115AP  23074.90910479  .00028803  00000-0  18189-2 0  9992","REF_FRAME":"TEME","COUNTRY_CODE":"US","OBJECT_ID":"2021-115AP","MEAN_MOTION":"15.08870533","EPOCH":"2023-03-15T21:49:06.653856","LAUNCH_DATE":"2021-12-02","OBJECT_NAME":"STARLINK-3203","APOAPSIS":"540.341","TLE_LINE2":"2 49761  53.2171 351.3323 0000996  78.3073 281.8030 15.08870533 71156","BSTAR":"0.00181890000000","MEAN_ANOMALY":"281.8030","MEAN_MOTION_DDOT":"0.0000000000000","DECAY_DATE":null,"RA_OF_ASC_NODE":"351.3323","PERIOD":"95.436","INCLINATION":"53.2171","NORAD_CAT_ID":"49761","FILE":"3861599","GP_ID":"228206179","ELEMENT_SET_NO":"999","MEAN_MOTION_DOT":"0.00028803","ARG_OF_PERICENTER":"78.3073","SEMIMAJOR_AXIS":"6917.787","TIME_SYSTEM":"UTC","ECCENTRICITY":"0.00009960","REV_AT_EPOCH":"7115","CLASSIFICATION_TYPE":"U"},{"MEAN_MOTION_DDOT":"0.0000000000000","BSTAR":"0.00107370000000","MEAN_ANOMALY":"241.4146","TLE_LINE2":"2 49762  53.2169 351.2441 0001120 118.6959 241.4146 15.08864535 71161","OBJECT_NAME":"STARLINK-3195","LAUNCH_DATE":"2021-12-02","APOAPSIS":"540.445","EPOCH":"2023-03-15T22:15:37.437696","OBJECT_ID":"2021-115AQ","MEAN_MOTION":"15.08864535","COUNTRY_CODE":"US","REF_FRAME":"TEME","TLE_LINE1":"1 49762U 21115AQ  23074.92751664  .00016853  00000-0  10737-2 0  9997","OBJECT_TYPE":"PAYLOAD","MEAN_ELEMENT_THEORY":"SGP4","CENTER_NAME":"EARTH","RCS_SIZE":"LARGE","EPHEMERIS_TYPE":"0","PERIAPSIS":"538.896","SITE":"AFETR","CLASSIFICATION_TYPE":"U","REV_AT_EPOCH":"7116","TIME_SYSTEM":"UTC","ECCENTRICITY":"0.00011200","SEMIMAJOR_AXIS":"6917.805","ARG_OF_PERICENTER":"118.6959","MEAN_MOTION_DOT":"0.00016853","ELEMENT_SET_NO":"999","GP_ID":"228205930","INCLINATION":"53.2169","FILE":"3861599","NORAD_CAT_ID":"49762","PERIOD":"95.436","RA_OF_ASC_NODE":"351.2441","DECAY_DATE":null},{"EPOCH":"2023-03-15T21:59:41.537472","REF_FRAME":"TEME","COUNTRY_CODE":"US","OBJECT_ID":"2021-115AR","MEAN_MOTION":"15.08868005","MEAN_ANOMALY":"242.9171","BSTAR":"0.00054791000000","MEAN_MOTION_DDOT":"0.0000000000000","APOAPSIS":"540.803","LAUNCH_DATE":"2021-12-02","OBJECT_NAME":"STARLINK-3198","TLE_LINE2":"2 49763  53.2156 351.3068 0001653 117.1990 242.9171 15.08868005 71164","CENTER_NAME":"EARTH","RCS_SIZE":"LARGE","OBJECT_TYPE":"PAYLOAD","MEAN_ELEMENT_THEORY":"SGP4","SITE":"AFETR","PERIAPSIS":"538.516","EPHEMERIS_TYPE":"0","TLE_LINE1":"1 49763U 21115AR  23074.91645298  .00008449  00000-0  54791-3 0  9993","SEMIMAJOR_AXIS":"6917.795","ARG_OF_PERICENTER":"117.1990","ELEMENT_SET_NO":"999","MEAN_MOTION_DOT":"0.00008449","REV_AT_EPOCH":"7116","CLASSIFICATION_TYPE":"U","ECCENTRICITY":"0.00016530","TIME_SYSTEM":"UTC","RA_OF_ASC_NODE":"351.3068","PERIOD":"95.436","DECAY_DATE":null,"GP_ID":"228207181","NORAD_CAT_ID":"49763","FILE":"3861599","INCLINATION":"53.2156"},{"EPOCH":"2023-03-15T22:26:12.516576","OBJECT_ID":"2021-115AS","MEAN_MOTION":"15.08854868","REF_FRAME":"TEME","COUNTRY_CODE":"US","MEAN_MOTION_DDOT":"0.0000000000000","MEAN_ANOMALY":"205.1867","BSTAR":"0.00154410000000","TLE_LINE2":"2 49764  53.2176 351.2164 0000802 154.9164 205.1867 15.08854868 72289","APOAPSIS":"540.255","OBJECT_NAME":"STARLINK-3206","LAUNCH_DATE":"2021-12-02","MEAN_ELEMENT_THEORY":"SGP4","OBJECT_TYPE":"PAYLOAD","RCS_SIZE":"LARGE","CENTER_NAME":"EARTH","SITE":"AFETR","PERIAPSIS":"539.145","EPHEMERIS_TYPE":"0","TLE_LINE1":"1 49764U 21115AS  23074.93486709  .00024382  00000-0  15441-2 0  9998","SEMIMAJOR_AXIS":"6917.835","ARG_OF_PERICENTER":"154.9164","MEAN_MOTION_DOT":"0.00024382","ELEMENT_SET_NO":"999","CLASSIFICATION_TYPE":"U","REV_AT_EPOCH":"7228","ECCENTRICITY":"0.00008020","TIME_SYSTEM":"UTC","PERIOD":"95.437","RA_OF_ASC_NODE":"351.2164","DECAY_DATE":null,"GP_ID":"228206932","NORAD_CAT_ID":"49764","FILE":"3861599","INCLINATION":"53.2176"}];
